CCSDS_OMM_VERS = 2.0
CREATION_DATE  = 
ORIGINATOR     = 

OBJECT_NAME    = SL-4 R/B
OBJECT_ID      = 2014-021B
CENTER_NAME    = EARTH
REF_FRAME      = TEME
TIME_SYSTEM    = UTC
MEAN_ELEMENT_THEORY = SGP/SGP4

EPOCH          = 2025-12-18T08:07:18.763968
MEAN_MOTION    = 15.36802194
ECCENTRICITY   = .01012976
INCLINATION    = 51.6090
RA_OF_ASC_NODE = 13.3831
ARG_OF_PERICENTER = 166.4131
MEAN_ANOMALY   = 193.9615

EPHEMERIS_TYPE = 0
CLASSIFICATION_TYPE = U
NORAD_CAT_ID   = 39679
ELEMENT_SET_NO = 999
REV_AT_EPOCH   = 64375
BSTAR          = .27712487E-3
MEAN_MOTION_DOT = .11604E-3
MEAN_MOTION_DDOT = 0

CCSDS_OMM_VERS = 2.0
CREATION_DATE  = 
ORIGINATOR     = 

OBJECT_NAME    = ALOS-2
OBJECT_ID      = 2014-029A
CENTER_NAME    = EARTH
REF_FRAME      = TEME
TIME_SYSTEM    = UTC
MEAN_ELEMENT_THEORY = SGP/SGP4

EPOCH          = 2025-12-19T02:24:46.375200
MEAN_MOTION    = 14.79465658
ECCENTRICITY   = .0001401
INCLINATION    = 97.9229
RA_OF_ASC_NODE = 87.8563
ARG_OF_PERICENTER = 102.1345
MEAN_ANOMALY   = 258.0023

EPHEMERIS_TYPE = 0
CLASSIFICATION_TYPE = U
NORAD_CAT_ID   = 39766
ELEMENT_SET_NO = 999
REV_AT_EPOCH   = 62495
BSTAR          = .2541E-3
MEAN_MOTION_DOT = .1846E-4
MEAN_MOTION_DDOT = 0

CCSDS_OMM_VERS = 2.0
CREATION_DATE  = 
ORIGINATOR     = 

OBJECT_NAME    = YAOGAN-29
OBJECT_ID      = 2015-069A
CENTER_NAME    = EARTH
REF_FRAME      = TEME
TIME_SYSTEM    = UTC
MEAN_ELEMENT_THEORY = SGP/SGP4

EPOCH          = 2025-12-18T23:02:26.853792
MEAN_MOTION    = 14.82888945
ECCENTRICITY   = .00003922
INCLINATION    = 98.0215
RA_OF_ASC_NODE = 16.1520
ARG_OF_PERICENTER = 187.3630
MEAN_ANOMALY   = 172.7578

EPHEMERIS_TYPE = 0
CLASSIFICATION_TYPE = U
NORAD_CAT_ID   = 41038
ELEMENT_SET_NO = 999
REV_AT_EPOCH   = 54391
BSTAR          = .64072271E-4
MEAN_MOTION_DOT = .465E-5
MEAN_MOTION_DDOT = 0

CCSDS_OMM_VERS = 2.0
CREATION_DATE  = 
ORIGINATOR     = 

OBJECT_NAME    = ASTRO-H (HITOMI)
OBJECT_ID      = 2016-012A
CENTER_NAME    = EARTH
REF_FRAME      = TEME
TIME_SYSTEM    = UTC
MEAN_ELEMENT_THEORY = SGP/SGP4

EPOCH          = 2025-12-18T18:34:45.710688
MEAN_MOTION    = 15.09389435
ECCENTRICITY   = .00096784
INCLINATION    = 30.9977
RA_OF_ASC_NODE = 158.4678
ARG_OF_PERICENTER = 239.5748
MEAN_ANOMALY   = 120.3933

EPHEMERIS_TYPE = 0
CLASSIFICATION_TYPE = U
NORAD_CAT_ID   = 41337
ELEMENT_SET_NO = 999
REV_AT_EPOCH   = 53999
BSTAR          = .16051471E-3
MEAN_MOTION_DOT = .2725E-4
MEAN_MOTION_DDOT = 0

CCSDS_OMM_VERS = 2.0
CREATION_DATE  = 
ORIGINATOR     = 

OBJECT_NAME    = HXMT (HUIYAN)
OBJECT_ID      = 2017-034A
CENTER_NAME    = EARTH
REF_FRAME      = TEME
TIME_SYSTEM    = UTC
MEAN_ELEMENT_THEORY = SGP/SGP4

EPOCH          = 2025-12-18T17:16:10.950816
MEAN_MOTION    = 15.16300991
ECCENTRICITY   = .00311129
INCLINATION    = 43.0136
RA_OF_ASC_NODE = 106.4422
ARG_OF_PERICENTER = 82.7085
MEAN_ANOMALY   = 277.7298

EPHEMERIS_TYPE = 0
CLASSIFICATION_TYPE = U
NORAD_CAT_ID   = 42758
ELEMENT_SET_NO = 999
REV_AT_EPOCH   = 47024
BSTAR          = .25953756E-3
MEAN_MOTION_DOT = .4942E-4
MEAN_MOTION_DDOT = 0

CCSDS_OMM_VERS = 2.0
CREATION_DATE  = 
ORIGINATOR     = 

OBJECT_NAME    = CZ-2C R/B
OBJECT_ID      = 2018-054D
CENTER_NAME    = EARTH
REF_FRAME      = TEME
TIME_SYSTEM    = UTC
MEAN_ELEMENT_THEORY = SGP/SGP4

EPOCH          = 2025-12-18T16:38:50.797536
MEAN_MOTION    = 15.75309621
ECCENTRICITY   = .00151649
INCLINATION    = 35.1318
RA_OF_ASC_NODE = 140.4820
ARG_OF_PERICENTER = 204.8382
MEAN_ANOMALY   = 155.1623

EPHEMERIS_TYPE = 0
CLASSIFICATION_TYPE = U
NORAD_CAT_ID   = 43521
ELEMENT_SET_NO = 999
REV_AT_EPOCH   = 41599
BSTAR          = .61447676E-3
MEAN_MOTION_DOT = .97933E-3
MEAN_MOTION_DDOT = 0

CCSDS_OMM_VERS = 2.0
CREATION_DATE  = 
ORIGINATOR     = 

OBJECT_NAME    = SAOCOM 1A
OBJECT_ID      = 2018-076A
CENTER_NAME    = EARTH
REF_FRAME      = TEME
TIME_SYSTEM    = UTC
MEAN_ELEMENT_THEORY = SGP/SGP4

EPOCH          = 2025-12-18T22:48:30.267648
MEAN_MOTION    = 14.82166247
ECCENTRICITY   = .00014739
INCLINATION    = 97.8840
RA_OF_ASC_NODE = 177.2814
ARG_OF_PERICENTER = 81.3266
MEAN_ANOMALY   = 278.8114

EPHEMERIS_TYPE = 0
CLASSIFICATION_TYPE = U
NORAD_CAT_ID   = 43641
ELEMENT_SET_NO = 999
REV_AT_EPOCH   = 38940
BSTAR          = .11351185E-3
MEAN_MOTION_DOT = .852E-5
MEAN_MOTION_DDOT = 0

CCSDS_OMM_VERS = 2.0
CREATION_DATE  = 
ORIGINATOR     = 

OBJECT_NAME    = H-2A R/B
OBJECT_ID      = 2018-084L
CENTER_NAME    = EARTH
REF_FRAME      = TEME
TIME_SYSTEM    = UTC
MEAN_ELEMENT_THEORY = SGP/SGP4

EPOCH          = 2025-12-18T11:38:05.325504
MEAN_MOTION    = 15.37574034
ECCENTRICITY   = .00269514
INCLINATION    = 98.8766
RA_OF_ASC_NODE = 187.7551
ARG_OF_PERICENTER = 306.4309
MEAN_ANOMALY   = 53.4446

EPHEMERIS_TYPE = 0
CLASSIFICATION_TYPE = U
NORAD_CAT_ID   = 43682
ELEMENT_SET_NO = 999
REV_AT_EPOCH   = 39328
BSTAR          = .45774666E-3
MEAN_MOTION_DOT = .16993E-3
MEAN_MOTION_DDOT = 0

CCSDS_OMM_VERS = 2.0
CREATION_DATE  = 
ORIGINATOR     = 

OBJECT_NAME    = SAOCOM 1B
OBJECT_ID      = 2020-059A
CENTER_NAME    = EARTH
REF_FRAME      = TEME
TIME_SYSTEM    = UTC
MEAN_ELEMENT_THEORY = SGP/SGP4

EPOCH          = 2025-12-18T23:33:31.962816
MEAN_MOTION    = 14.82142682
ECCENTRICITY   = .00013929
INCLINATION    = 97.8834
RA_OF_ASC_NODE = 176.4124
ARG_OF_PERICENTER = 85.6888
MEAN_ANOMALY   = 274.4484

EPHEMERIS_TYPE = 0
CLASSIFICATION_TYPE = U
NORAD_CAT_ID   = 46265
ELEMENT_SET_NO = 999
REV_AT_EPOCH   = 28679
BSTAR          = .14607731E-4
MEAN_MOTION_DOT = .64E-6
MEAN_MOTION_DDOT = 0

CCSDS_OMM_VERS = 2.0
CREATION_DATE  = 
ORIGINATOR     = 

OBJECT_NAME    = CSS (TIANHE)
OBJECT_ID      = 2021-035A
CENTER_NAME    = EARTH
REF_FRAME      = TEME
TIME_SYSTEM    = UTC
MEAN_ELEMENT_THEORY = SGP/SGP4

EPOCH          = 2025-12-18T22:15:16.316352
MEAN_MOTION    = 15.59443301
ECCENTRICITY   = .00076984
INCLINATION    = 41.4683
RA_OF_ASC_NODE = 339.1361
ARG_OF_PERICENTER = 85.4974
MEAN_ANOMALY   = 274.6744

EPHEMERIS_TYPE = 0
CLASSIFICATION_TYPE = U
NORAD_CAT_ID   = 48274
ELEMENT_SET_NO = 999
REV_AT_EPOCH   = 26499
BSTAR          = .26140428E-3
MEAN_MOTION_DOT = .2103E-3
MEAN_MOTION_DDOT = 0

CCSDS_OMM_VERS = 2.0
CREATION_DATE  = 
ORIGINATOR     = 

OBJECT_NAME    = COSMOS 2550
OBJECT_ID      = 2021-056A
CENTER_NAME    = EARTH
REF_FRAME      = TEME
TIME_SYSTEM    = UTC
MEAN_ELEMENT_THEORY = SGP/SGP4

EPOCH          = 2025-12-18T23:39:48.645216
MEAN_MOTION    = 15.33831648
ECCENTRICITY   = .00083426
INCLINATION    = 67.1456
RA_OF_ASC_NODE = 285.0407
ARG_OF_PERICENTER = 268.9118
MEAN_ANOMALY   = 91.1081

EPHEMERIS_TYPE = 0
CLASSIFICATION_TYPE = U
NORAD_CAT_ID   = 48865
ELEMENT_SET_NO = 999
REV_AT_EPOCH   = 25108
BSTAR          = .4851149E-5
MEAN_MOTION_DOT = -.32E-6
MEAN_MOTION_DDOT = 0

CCSDS_OMM_VERS = 2.0
CREATION_DATE  = 
ORIGINATOR     = 

OBJECT_NAME    = CZ-2C R/B
OBJECT_ID      = 2022-058K
CENTER_NAME    = EARTH
REF_FRAME      = TEME
TIME_SYSTEM    = UTC
MEAN_ELEMENT_THEORY = SGP/SGP4

EPOCH          = 2025-12-18T11:38:44.813760
MEAN_MOTION    = 15.48776327
ECCENTRICITY   = .0045044
INCLINATION    = 50.1911
RA_OF_ASC_NODE = 14.2431
ARG_OF_PERICENTER = 222.2982
MEAN_ANOMALY   = 137.4509

EPHEMERIS_TYPE = 0
CLASSIFICATION_TYPE = U
NORAD_CAT_ID   = 52794
ELEMENT_SET_NO = 999
REV_AT_EPOCH   = 19752
BSTAR          = .41195427E-3
MEAN_MOTION_DOT = .23076E-3
MEAN_MOTION_DDOT = 0

