SL-4 R/B                
1 39679U 14021B   25352.33841162  .00011604  00000+0  27712-3 0  9990
2 39679  51.6090  13.3831 0101297 166.4131 193.9615 15.36802194643756
ALOS-2                  
1 39766U 14029A   25353.10053675  .00001846  00000+0  25410-3 0  9995
2 39766  97.9229  87.8563 0001401 102.1345 258.0023 14.79465658624951
YAOGAN-29               
1 41038U 15069A   25352.96003303  .00000465  00000+0  64072-4 0  9995
2 41038  98.0215  16.1520 0000392 187.3630 172.7578 14.82888945543916
ASTRO-H (HITOMI)        
1 41337U 16012A   25352.77414017  .00002725  00000+0  16051-3 0  9997
2 41337  30.9977 158.4678 0009678 239.5748 120.3933 15.09389435539995
HXMT (HUIYAN)           
1 42758U 17034A   25352.71957119  .00004942  00000+0  25954-3 0  9994
2 42758  43.0136 106.4422 0031112  82.7085 277.7298 15.16300991470246
CZ-2C R/B               
1 43521U 18054D   25352.69364349  .00097933  00000+0  61448-3 0  9990
2 43521  35.1318 140.4820 0015164 204.8382 155.1623 15.75309621415991
SAOCOM 1A               
1 43641U 18076A   25352.95035032  .00000852  00000+0  11351-3 0  9992
2 43641  97.8840 177.2814 0001473  81.3266 278.8114 14.82166247389403
H-2A R/B                
1 43682U 18084L   25352.48478386  .00016993  00000+0  45775-3 0  9997
2 43682  98.8766 187.7551 0026951 306.4309  53.4446 15.37574034393281
SAOCOM 1B               
1 46265U 20059A   25352.98161994  .00000064  00000+0  14608-4 0  9995
2 46265  97.8834 176.4124 0001392  85.6888 274.4484 14.82142682286790
CSS (TIANHE)            
1 48274U 21035A   25352.92727218  .00021030  00000+0  26140-3 0  9992
2 48274  41.4683 339.1361 0007698  85.4974 274.6744 15.59443301264995
COSMOS 2550             
1 48865U 21056A   25352.98597969 -.00000032  00000+0  48511-5 0  9993
2 48865  67.1456 285.0407 0008342 268.9118  91.1081 15.33831648251088
CZ-2C R/B               
1 52794U 22058K   25352.48524090  .00023076  00000+0  41195-3 0  9993
2 52794  50.1911  14.2431 0045044 222.2982 137.4509 15.48776327197528
